OBJECT_NAME,OBJECT_ID,EPOCH,MEAN_MOTION,ECCENTRICITY,INCLINATION,RA_OF_ASC_NODE,ARG_OF_PERICENTER,MEAN_ANOMALY,EPHEMERIS_TYPE,CLASSIFICATION_TYPE,NORAD_CAT_ID,ELEMENT_SET_NO,REV_AT_EPOCH,BSTAR,MEAN_MOTION_DOT,MEAN_MOTION_DDOT
ION SCV-006,2022-057AF,2026-07-20T09:01:31.086336,15.45992419,.00163067,97.6140,351.6156,358.7687,1.3518,0,U,52761,999,23124,.14539763E-3,.7026E-4,0
SHERPA-AC1,2022-057AH,2026-07-20T20:48:26.798976,15.36679331,.0006681,97.6728,352.5159,342.7894,17.3121,0,U,52763,999,23087,.14332E-3,.5049E-4,0
OMNI-L2,2022-057AR,2026-07-20T18:14:10.500864,14.81445277,.0006159,97.4696,261.8603,200.2410,159.8560,0,U,52771,999,22536,.86889E-4,.633E-5,0
STEP CUBE LAB-II,2022-065D,2026-07-20T20:18:37.701216,14.63347719,.0007239,98.2274,345.6526,281.9218,78.1172,0,U,52897,999,21642,.93599E-4,.435E-5,0
RANDEV,2022-065E,2026-07-20T20:07:20.306208,14.63736631,.0006568,98.2259,346.0114,282.6265,77.4203,0,U,52898,999,21617,.93678E-4,.44E-5,0
SNUGLITE-II,2022-065F,2026-07-20T20:29:40.363296,14.64400466,.0006137,98.2245,346.6331,279.2276,80.8233,0,U,52899,999,21592,.1181E-3,.576E-5,0
MIMAN,2022-065G,2026-07-20T20:39:41.183712,14.61874979,.0006285,98.2305,344.1819,282.7071,77.3427,0,U,52900,999,21536,.67608E-4,.29E-5,0
STARLINK-4362,2022-077A,2026-07-20T10:16:48.764352,15.05653566,.00014782,97.2866,18.5879,102.9575,257.1818,0,U,53043,999,22088,.864188E-5,.68E-6,0
LARES-2,2022-080A,2026-07-18T18:51:23.050944,6.38965084,.00054794,70.1539,294.4914,328.1411,31.8962,0,U,53105,999,9368,0,-.2E-6,0
GREENCUBE (IO-117),2022-080E,2026-07-20T04:18:04.419648,6.42583323,.00090888,70.1400,286.7734,282.4177,77.5466,0,U,53109,999,9418,0,-.3E-7,0
STARLINK-4410,2022-084R,2026-07-20T20:00:01.999008,15.36980572,.0001576,97.5995,264.1394,90.5019,239.3759,0,U,53204,999,589,-.92639E-3,-.33407E-3,0
COSMOS 2558,2022-089A,2026-07-20T20:40:50.068704,15.82905343,.0004329,97.2232,307.4901,220.3966,139.6983,0,U,53323,999,22314,.5961E-3,.127495E-2,0
TECMS,2022-090A,2026-07-20T20:01:30.292896,15.21255225,.0005348,97.3121,268.9864,71.4616,288.7201,0,U,53346,999,21992,.89613E-4,.1935E-4,0
DONGPO 02,2022-098J,2026-07-20T17:09:16.745760,15.82310058,.0004421,97.5550,336.0219,204.4759,155.6300,0,U,53452,999,22008,.58341E-3,.121299E-2,0
DONGPO 01,2022-098K,2026-07-20T21:19:15.439296,15.79122415,.00029,97.5621,336.6274,199.2539,160.8619,0,U,53453,999,22006,.58355E-3,.104663E-2,0
STARLINK-4400,2022-099D,2026-07-20T20:56:50.455680,15.05643697,.0001856,97.2847,319.0880,128.2064,231.9331,0,U,53468,999,21601,.11202E-3,.156E-4,0
STARLINK-4621,2022-105AE,2026-07-20T05:03:48.130272,15.05657525,.00016573,97.2852,78.4797,91.4943,268.6474,0,U,53676,999,21317,.2729891E-4,.338E-5,0
SHERPA-LTC2,2022-107BG,2026-07-20T20:17:51.645696,14.69945844,.0393154,53.2364,77.8211,320.5659,36.7293,0,U,53754,999,20749,.1354E-3,.2431E-4,0
CENTISPACE-1 S3,2022-108A,2026-07-20T20:38:21.134112,14.61286707,.0010826,53.5329,276.0171,77.5482,282.6704,0,U,53757,999,20645,.61614E-4,.117E-5,0
CENTISPACE-1 S4,2022-108B,2026-07-20T19:52:58.632960,14.61971999,.0010207,53.5303,273.5050,66.9440,293.2610,0,U,53758,999,20648,.59486E-4,.11E-5,0
BLUEWALKER-3,2022-111AL,2026-07-20T10:34:46.867872,15.38642700,.0004677,53.2275,237.8077,289.4443,70.6056,0,U,53807,999,21532,.94837956E-4,.3279E-4,0
YUNHAI-1 03,2022-115A,2026-07-20T22:02:50.044992,14.32740079,.000382,98.5548,199.6399,319.9747,40.1155,0,U,53877,999,20034,.11544E-3,.271E-5,0
CENTISPACE-1 S5,2022-126A,2026-07-20T20:01:50.500128,14.63063407,.0014098,54.9992,78.3081,135.3447,224.8685,0,U,54020,999,20196,.12192E-3,.441E-5,0
CENTISPACE-1 S6,2022-126B,2026-07-20T20:16:21.204768,14.62322790,.0015875,54.9994,80.2914,136.7549,223.4694,0,U,54021,999,20192,.11197E-3,.381E-5,0
OTB-3-GAZELLE,2022-127A,2026-07-20T10:04:40.904832,14.42685138,.00144722,98.3965,192.6214,88.5272,271.7575,0,U,54023,999,19915,.34420957E-4,.71E-6,0
ASO-S,2022-129A,2026-07-20T21:08:15.986976,14.52076478,.0014136,98.2760,206.4805,355.0723,5.0332,0,U,54029,999,20031,.35574E-4,.99E-6,0
HJ-2E,2022-132A,2026-07-20T20:50:41.657280,15.22738792,.0018176,97.3811,205.6499,248.3809,111.5492,0,U,54035,999,20954,.18882E-3,.4354E-4,0
COSMOS 2561,2022-137A,2026-07-20T21:07:52.266720,15.52463802,.0008242,96.9163,259.6361,255.0048,105.0294,0,U,54109,999,21157,.15383E-3,.933E-4,0
GONETS-M 23,2022-139A,2026-07-20T19:55:11.625024,12.42892120,.002233,82.5099,327.3874,146.6424,213.6068,0,U,54150,999,16982,.21665E-3,.4E-6,0
GONETS-M 24,2022-139B,2026-07-20T19:16:23.670336,12.42892602,.001743,82.5015,326.4409,156.3058,203.8828,0,U,54151,999,16982,.146E-3,.3E-6,0
GONETS-M 25,2022-139C,2026-07-20T20:52:47.293248,12.42891005,.0021363,82.5081,327.1038,155.0879,205.1236,0,U,54152,999,16983,.1633E-3,.33E-6,0
SKIF-D,2022-139D,2026-07-20T05:36:35.487648,5.00432793,.0007478,89.9487,96.6586,185.3114,174.7531,0,U,54153,999,6576,0,-.7E-7,0
MATS,2022-147A,2026-07-20T21:08:13.625664,15.05526108,.0014198,97.6839,203.3364,86.3973,273.8877,0,U,54227,999,20283,.16076E-3,.2255E-4,0
EOS-6 (OCEANSAT-3),2022-158A,2026-07-20T20:07:17.385888,14.46986166,.0000729,98.3550,299.5873,152.7919,207.3311,0,U,54361,999,19270,.45171E-4,.121E-5,0
DONGPO 09,2022-167D,2026-07-20T21:06:50.547744,15.37012455,.0002403,97.6929,14.4140,39.2271,320.9146,0,U,54685,999,20062,.2272E-3,.814E-4,0
DONGPO 08,2022-167E,2026-07-20T20:30:57.539232,15.34252196,.0008982,97.6894,11.4047,56.7109,303.4992,0,U,54686,999,20048,.19927E-3,.6529E-4,0
DONGPO 10,2022-167H,2026-07-20T20:14:49.328736,15.35070628,.0004483,97.6976,13.4244,9.5656,350.5671,0,U,54689,999,20052,.20571E-3,.6915E-4,0
JILIN-1 GAOFEN 03D48,2022-167P,2026-07-20T19:46:51.235968,15.35864970,.0005924,97.6910,12.7941,11.1185,349.0188,0,U,54695,999,20055,.20315E-3,.7006E-4,0
STAR VIBE,2023-001A,2026-07-20T19:50:21.136128,15.43446798,.0004851,97.3147,266.4435,11.9599,348.1763,0,U,55009,999,19741,.20358E-3,.9023E-4,0
BRO-8,2023-001C,2026-07-20T19:27:07.535232,15.50982329,.0004235,97.3178,267.5234,18.9024,341.2385,0,U,55011,999,19741,.38627E-3,.22353E-3,0
CONNECTA T1.2,2023-001D,2026-07-20T18:17:11.253120,15.53177131,.0003343,97.3233,273.1039,336.8126,23.2975,0,U,55012,999,19775,.44719E-3,.28026E-3,0
BIRKELAND,2023-001G,2026-07-20T20:41:05.319168,15.40595358,.0005729,97.3325,269.9274,0.9656,359.1600,0,U,55015,999,19753,.15168E-3,.6088E-4,0
ION SCV-008,2023-001AU,2026-07-20T19:35:01.569696,15.28918578,.0013304,97.5712,298.7065,251.0297,108.9501,0,U,55051,999,19647,.13503E-3,.3722E-4,0
ION SCV-007,2023-001BD,2026-07-20T17:15:49.279968,14.77578932,.0011359,97.8987,264.0661,222.6086,137.4245,0,U,55060,999,19120,.35009E-4,.199E-5,0
HUYGENS,2023-001CN,2026-07-20T20:41:12.581952,15.40596111,.00078,97.3229,269.1133,330.3362,29.7441,0,U,55093,999,19755,.14981E-3,.6015E-4,0
SHARJAHSAT-1,2023-001CZ,2026-07-20T19:38:57.375168,15.50252287,.000419,97.3139,271.0772,0.6924,359.4333,0,U,55104,999,19770,.23529E-3,.13217E-3,0
HORUS 1,2023-025A,2026-07-20T14:03:33.198624,15.23570431,.0003032,97.3446,275.4784,105.5012,254.6560,0,U,55690,999,18913,.13577E-3,.3177E-4,0
HORUS 2,2023-032A,2026-07-20T21:14:04.370784,15.23379460,.0001491,97.3519,276.6067,137.2637,222.8716,0,U,55844,999,18661,.1534E-3,.3578E-4,0
GLOBAL-19,2023-041B,2026-07-19T21:12:46.655712,15.38760174,.00101827,42.0026,11.1059,247.3158,112.6606,0,U,55982,999,18696,.22396406E-3,.853E-4,0
ION SCV-010,2023-054Q,2026-07-20T06:24:39.174048,15.26450591,.0014635,97.3733,90.3442,88.3433,271.9482,0,U,56192,999,18124,.10550065E-3,.2684E-4,0
TELEOS-2,2023-057C,2026-07-18T22:46:10.679808,14.96381338,.00006739,9.9897,332.9183,260.9318,99.0819,0,U,56310,999,17756,.41144768E-4,.1166E-4,0
SNIPE 4,2023-072B,2026-07-20T19:22:23.012256,15.43540277,.0005311,97.5230,48.9053,184.3889,175.7313,0,U,56744,999,17529,.33431E-3,.14929E-3,0
SNIPE 2,2023-072C,2026-07-20T21:03:06.172992,15.48423705,.0003736,97.5219,52.2646,208.0211,152.0839,0,U,56745,999,17545,.40384E-3,.21355E-3,0
2023-072G,2023-072G,2026-07-20T20:36:59.969088,15.52350630,.0003019,97.4879,51.0908,186.4807,173.6407,0,U,56749,999,17568,.37076E-3,.2252E-3,0
GEISAT PRECURSOR,2023-084C,2026-07-20T20:36:56.968416,15.35058764,.0004969,97.6263,343.9388,206.8796,153.2190,0,U,56934,999,17269,.15202E-3,.5087E-4,0
BLACKJACK ACES-3,2023-084U,2026-07-20T20:09:43.509024,15.18821795,.0001228,97.6251,337.3013,195.8522,164.2674,0,U,56950,999,17227,.17261E-3,.3523E-4,0
BLACKJACK ACES-2,2023-084Z,2026-07-20T20:18:33.281856,15.18777633,.0001951,97.6248,337.3909,132.8346,227.3052,0,U,56955,999,17228,.2271E-3,.4652E-4,0
BLACKJACK ACES-1,2023-084AA,2026-07-20T20:00:29.881152,15.18781941,.0002224,97.6239,337.1492,112.5749,247.5721,0,U,56956,999,12200,.21156E-3,.4329E-4,0
ION SCV-011,2023-084AB,2026-07-20T12:11:30.292800,15.29127969,.00058043,98.1385,31.8826,283.2570,76.8020,0,U,56957,999,17090,.11154648E-3,.3065E-4,0
GHOST-3,2023-084AC,2026-07-20T09:07:30.233856,15.48906622,.0007112,97.6257,351.7661,167.8418,192.3005,0,U,56958,999,17315,.2254E-3,.12071E-3,0
AFR-1,2023-084AJ,2026-07-20T21:03:28.152288,15.28807516,.0009672,97.6315,339.3937,212.8728,147.1911,0,U,56964,999,17237,.11956E-3,.3271E-4,0
METEOR-M2 3,2023-091A,2026-07-20T21:28:13.378656,14.24049195,.0005087,98.6064,256.1798,77.6307,282.5441,0,U,57166,999,15931,.47772E-5,-.32E-6,0
UMKA 1 (RS40S),2023-091G,2026-07-20T20:14:07.736640,15.21158333,.0012458,97.5028,260.4152,10.5246,349.6247,0,U,57172,999,16912,.17505E-3,.3836E-4,0
2023-091H,2023-091H,2026-07-20T19:42:57.626784,15.29286903,.0008998,97.5025,265.2985,5.5436,354.5902,0,U,57173,999,16944,.26571E-3,.748E-4,0
2023-091J,2023-091J,2026-07-20T19:52:51.206016,15.14135546,.0014011,97.5037,254.4458,38.2707,321.9516,0,U,57174,999,16872,.12958E-3,.23E-4,0
CUBEBEL 2 (EU11S),2023-091K,2026-07-20T19:26:05.525088,15.29903624,.0008944,97.5028,265.3422,7.0424,353.0940,0,U,57175,999,16944,.29851E-3,.8576E-4,0
SITRO-AIS 5 (KATYS),2023-091L,2026-07-20T19:42:08.890272,15.30139098,.0010065,97.5038,266.0539,351.9578,8.1499,0,U,57176,999,16948,.26954E-3,.7795E-4,0
